ORBCOMM FM24 [-]        
1 25478U 98053D   23351.91540575  .00001489  00000+0  56711-3 0  9995
2 25478  45.0104 337.2813 0002642 315.9861  44.0776 14.35009668318750
ORBCOMM FM25 [-]        
1 25479U 98053E   23351.94958737  .00001498  00000+0  57047-3 0  9995
2 25479  45.0094 335.3562 0004112 356.4670   3.6147 14.34998546319059
ORBCOMM FM26 [-]        
1 25480U 98053F   23351.97459380  .00001269  00000+0  49523-3 0  9996
2 25480  45.0088 328.8005 0005328  28.6694 331.4445 14.34533405319004
ORBCOMM FM27 [+]        
1 25481U 98053G   23351.93548582  .00001484  00000+0  56583-3 0  9999
2 25481  45.0075 335.6818 0001973 279.8110  80.2515 14.34972512318983
ORBCOMM FM31 [-]        
1 25981U 99065B   23352.54380505  .00001138  00000+0  44782-3 0  9999
2 25981  45.0219 145.3103 0004148 178.3354 181.7507 14.34683456255435
ORBCOMM FM32 [+]        
1 25982U 99065C   23352.56099060  .00001168  00000+0  46797-3 0  9996
2 25982  45.0146 157.9831 0006330 176.9465 183.1422 14.33628565256087
